1 25419U 98046G   16160.58379321  .00000195  00000-0  12288-3 0  9999,2 25419  44.9978 216.6696 0001205 257.3741 256.8689 14.32338623931458
1 25419U 98046G   16161.62647803  .00000170  00000-0  11401-3 0  9997,2 25419  44.9977 211.7710 0001242 259.6322 236.3235 14.32339210931601
1 25419U 98046G   16163.14123296  .00000137  00000-0  10169-3 0  9994,2 25419  44.9974 204.6546 0001292 262.7743 131.4409 14.32340114931820
1 25419U 98046G   16164.19042487  .00000125  00000-0  97195-4 0  9994,2 25419  44.9973 199.7253 0001316 264.6468 144.8727 14.32340776931971
1 25419U 98046G   16165.53729317  .00000128  00000-0  98549-4 0  9994,2 25419  44.9972 193.3975 0001344 267.8916 253.3632 14.32341589932161
1 25419U 98046G   16167.19740228  .00000162  00000-0  11105-3 0  9992,2 25419  44.9972 185.5979 0001362 271.0792 178.6790 14.32342609932402
1 25419U 98046G   16168.39175616  .00000202  00000-0  12575-3 0  9995,2 25419  44.9972 179.9867 0001362 274.0767 220.2355 14.32343441932574
1 25419U 98046G   16169.44174515  .00000175  00000-0  11559-3 0  9999,2 25419  44.9972 175.0537 0001355 276.7823 236.9595 14.32343889932722
1 25419U 98046G   16169.97342918 +.00000162 +00000-0 +11108-3 0  9997,2 25419 044.9973 172.5557 0001354 277.9844 100.0009 14.32344158932611
1 25419U 98046G   16170.81880412  .00000159  00000-0  10982-3 0  9993,2 25419  44.9973 168.5840 0001339 279.6492 141.6712 14.32344743932928
1 25419U 98046G   16170.89114321 +.00000159 +00000-0 +11000-3 0  9992,2 25419 044.9973 168.2442 0001339 279.7918 154.9010 14.32344788932744
1 25419U 98046G   16172.14073797  .00000118  00000-0  94875-4 0  9990,2 25419  44.9973 162.3734 0001307 282.8203 121.5583 14.32345460933115
1 25419U 98046G   16173.19979756  .00000099  00000-0  87714-4 0  9998,2 25419  44.9974 157.3978 0001279 285.6260 185.0078 14.32346040933267
1 25419U 98046G   16174.39493716  .00000089  00000-0  84204-4 0  9998,2 25419  44.9975 151.7828 0001246 288.0255 231.2324 14.32346652933431
1 25419U 98046G   16174.92743397 +.00000094 +00000-0 +86002-4 0  9994,2 25419 044.9975 149.2810 0001238 288.9468 098.7546 14.32346940933320
1 25419U 98046G   16175.77199169  .00000102  00000-0  88866-4 0  9990,2 25419  44.9976 145.3131 0001202 291.2491 135.5762 14.32347357933635
1 25419U 98046G   16175.90414723 +.00000107 +00000-0 +90726-4 0  9994,2 25419 044.9976 144.6922 0001192 291.5912 097.3454 14.32347426933465
1 25419U 98046G   16176.82061765  .00000128  00000-0  98325-4 0  9996,2 25419  44.9977 140.3864 0001148 293.7269 145.5079 14.32347931933789
1 25419U 98046G   16176.95611756 +.00000129 +00000-0 +98741-4 0  9994,2 25419 044.9977 139.7497 0001137 293.9721 124.6361 14.32347994933619
1 25419U 98046G   16177.85636841  .00000127  00000-0  98225-4 0  9991,2 25419  44.9978 135.5202 0001089 295.9497  89.2421 14.32348380933934
1 25419U 98046G   16177.92958376 +.00000125 +00000-0 +97333-4 0  9996,2 25419 044.9978 135.1762 0001079 296.2819 106.8058 14.32348397933752
1 25419U 98046G   16178.90491900  .00000120  00000-0  95520-4 0  9991,2 25419  44.9980 130.5939 0001023 298.1106  99.1058 14.32348872934088
1 25419U 98046G   16180.09691939  .00000087  00000-0  83483-4 0  9995,2 25419  44.9982 124.9937 0000947 299.9523 129.6975 14.32349372934253
1 25419U 98046G   16181.22942935  .00000066  00000-0  75821-4 0  9990,2 25419  44.9984 119.6732 0000888 301.6224 213.4069 14.32349911934415
1 25419U 98046G   16182.27698383  .00000052  00000-0  70410-4 0  9995,2 25419  44.9986 114.7518 0000822 302.9424 218.9752 14.32350363934567
1 25419U 98046G   16182.88241912 +.00000036 +00000-0 +64612-4 0  9993,2 25419 044.9987 111.9073 0000780 303.4354 103.3999 14.32350539934468
1 25419U 98046G   16183.85857929  .00000042  00000-0  67018-4 0  9992,2 25419  44.9987 107.3212 0000707 304.3631 100.8646 14.32350910934799
1 25419U 98046G   16183.92782106 +.00000029 +00000-0 +62264-4 0  9997,2 25419 044.9987 106.9959 0000699 304.4657 098.1491 14.32350864934617
1 25419U 98046G   16185.19879414  .00000043  00000-0  67216-4 0  9995,2 25419  44.9988 101.0248 0000605 305.2919 177.3759 14.32351251934980
1 25419U 98046G   16186.24802588  .00000025  00000-0  60853-4 0  9990,2 25419  44.9989  96.0954 0000536 304.7232 193.4935 14.32351386935135
1 25419U 98046G   16186.92931112 +.00000018 +00000-0 +57968-4 0  9996,2 25419 044.9989 092.8946 0000482 303.3349 111.2971 14.32351521935043
1 25419U 98046G   16187.84627314  .00000019  00000-0  58350-4 0  9991,2 25419  44.9990  88.5866 0000428 299.9036 167.5773 14.32351820935362
1 25419U 98046G   16189.17693743  .00000020  00000-0  59003-4 0  9996,2 25419  44.9991  82.3351 0000350 293.7384 201.8941 14.32352316935557
1 25419U 98046G   16189.80001853 +.00000018 +00000-0 +58105-4 0  9990,2 25419 044.9992 079.4078 0000321 287.5311 184.1019 14.32352568935457
1 25419U 98046G   16191.13465598  .00000065  00000-0  75471-4 0  9996,2 25419  44.9993  73.1377 0000275 272.3276 247.9700 14.32353470935831
1 25419U 98046G   16192.51167502  .00000129  00000-0  98938-4 0  9997,2 25419  44.9994  66.6684 0000291 252.7012 175.0154 14.32354488936035
1 25419U 98046G   16192.80127880 +.00000145 +00000-0 +10481-3 0  9998,2 25419 044.9994 065.3078 0000291 246.9252 235.5686 14.32354746935880
1 25419U 98046G   16193.69252582  .00000182  00000-0  11822-3 0  9995,2 25419  44.9994  61.1206 0000329 235.0333 167.5932 14.32355390936209
1 25419U 98046G   16194.81109191  .00000223  00000-0  13338-3 0  9997,2 25419  44.9994  55.8654 0000387 225.7055 190.3540 14.32356267936367
1 25419U 98046G   16194.96538150 +.00000212 +00000-0 +12922-3 0  9990,2 25419 044.9993 055.1406 0000396 223.7334 268.6855 14.32356277936192
1 25419U 98046G   16196.01506766  .00000204  00000-0  12649-3 0  9993,2 25419  44.9993  50.2089 0000465 219.3285 291.0057 14.32356920936535
1 25419U 98046G   16197.46486905  .00000188  00000-0  12048-3 0  9999,2 25419  44.9994  43.3974 0000597 214.7616 218.6709 14.32357791936744
1 25419U 98046G   16198.51398478  .00000170  00000-0  11394-3 0  9997,2 25419  44.9994  38.4685 0000699 212.0478 236.3620 14.32358459936895
1 25419U 98046G   16198.86140534 +.00000137 +00000-0 +10172-3 0  9999,2 25419 044.9994 036.8362 0000731 211.6317 229.9777 14.32358475936757
1 25419U 98046G   16199.83803959  .00000140  00000-0  10274-3 0  9991,2 25419  44.9995  32.2478 0000815 212.5957 229.8818 14.32359098937083
1 25419U 98046G   16199.91184287 +.00000141 +00000-0 +10318-3 0  9996,2 25419 044.9995 031.9011 0000813 212.8578 250.5531 14.32359145936908
1 25419U 98046G   16200.96236738  .00000108  00000-0  90979-4 0  9998,2 25419  44.9995  26.9656 0000907 213.8414 271.8230 14.32359609937246
1 25419U 98046G   16202.01194439  .00000123  00000-0  96702-4 0  9994,2 25419  44.9996  22.0345 0001004 215.3645 287.6644 14.32360240937394
1 25419U 98046G   16202.92096407 +.00000149 +00000-0 +10596-3 0  9994,2 25419 044.9996 017.7638 0001077 217.1821 297.7307 14.32360867937333
1 25419U 98046G   16203.66893328  .00000142  00000-0  10348-3 0  9991,2 25419  44.9996  14.2496 0001128 219.0480 196.4906 14.32361177937634
1 25419U 98046G   16203.88950466 +.00000126 +00000-0 +97727-4 0  9991,2 25419 044.9996 013.2134 0001146 219.4081 254.6048 14.32361197937471
1 25419U 98046G   16204.86555679  .00000106  00000-0  90399-4 0  9993,2 25419  44.9995   8.6277 0001244 221.1581 250.7282 14.32361616937800
1 25419U 98046G   16205.92271941  .00000073  00000-0  78370-4 0  9996,2 25419  44.9995   3.6608 0001327 223.5115 304.8998 14.32362008937951
1 25419U 98046G   16207.51577949  .00000052  00000-0  70738-4 0  9997,2 25419  44.9997 356.1761 0001436 227.3977 243.5657 14.32362685938186
1 25419U 98046G   16207.87458609 +.00000057 +00000-0 +72377-4 0  9993,2 25419 044.9997 354.4905 0001463 228.1823 294.7557 14.32362880938045
1 25419U 98046G   16208.85045459  .00000019  00000-0  58352-4 0  9992,2 25419  44.9998 349.9056 0001531 230.6908 289.1763 14.32362989938373
1 25419U 98046G   16210.43187631  .00000022  00000-0  59482-4 0  9997,2 25419  44.9999 342.4759 0001646 235.0603 167.2914 14.32363422938603
1 25419U 98046G   16210.57461328 +.00000017 +00000-0 +57748-4 0  9997,2 25419 044.9999 341.8054 0001656 235.3960 183.6905 14.32363430938436
1 25419U 98046G   16211.47706953  .00000007  00000-0  54000-4 0  9990,2 25419  44.9999 337.5656 0001725 237.7518 159.3503 14.32363582938755
1 25419U 98046G   16211.84579251 +.00000007 +00000-0 +54076-4 0  9993,2 25419 044.9998 335.8334 0001744 238.9200 261.3408 14.32363660938610
1 25419U 98046G   16212.52673906 -.00000004  00000-0  50152-4 0  9990,2 25419  44.9998 332.6342 0001794 240.7141 174.2440 14.32363779938905
1 25419U 98046G   16212.82144362 -.00000000 +00000-0 +51417-4 0  9993,2 25419 044.9998 331.2497 0001805 241.6301 254.4422 14.32363876938754
1 25419U 98046G   16213.79755052 -.00000001  00000-0  51068-4 0  9997,2 25419  44.9997 326.6639 0001864 244.3953 249.8423 14.32364181939083
1 25419U 98046G   16215.52824089  .00000010  00000-0  55107-4 0  9994,2 25419  44.9996 318.5328 0001973 249.1501 178.0308 14.32364902939334
1 25419U 98046G   16215.74974966 +.00000021 +00000-0 +59061-4 0  9993,2 25419 044.9996 317.4922 0001976 249.6969 240.8001 14.32365052939175
1 25419U 98046G   16216.72586826  .00000047  00000-0  68801-4 0  9996,2 25419  44.9995 312.9062 0002027 252.6890 236.0381 14.32365603939501
1 25419U 98046G   16218.24062772  .00000103  00000-0  89423-4 0  9990,2 25419  44.9994 305.7896 0002107 257.2671 129.8856 14.32366547939720
1 25419U 98046G   16219.50595640  .00000139  00000-0  10241-3 0  9995,2 25419  44.9992 299.8448 0002150 260.8429 177.3028 14.32367281939908
1 25419U 98046G   16220.56273230  .00000143  00000-0  10379-3 0  9998,2 25419  44.9991 294.8799 0002178 264.0520 228.6441 14.32367801940054
1 25419U 98046G   16220.70312964 +.00000142 +00000-0 +10358-3 0  9998,2 25419 044.9990 294.2203 0002183 264.5855 232.7719 14.32367872939880
1 25419U 98046G   16221.67923880  .00000141  00000-0  10315-3 0  9992,2 25419  44.9989 289.6344 0002203 267.6911 227.8580 14.32368429940211
